NORAD_CAT_ID,OBJECT_NAME,OBJECT_TYPE,EPOCH,MEAN_MOTION,ECCENTRICITY,INCLINATION,RA_OF_ASC_NODE,ARG_OF_PERICENTER,MEAN_ANOMALY,BSTAR,MEAN_MOTION_DOT,MEAN_MOTION_DDOT,TLE_LINE0,TLE_LINE1,TLE_LINE2,SEMIMAJOR_AXIS,PERIOD,APOGEE,PERIGEE,DECAYED
49417.0,STARLINK-3154,PAYLOAD,2022-07-14 02:19:26,15.08841623,0.0002749,53.2175,90.352,55.7114,304.4138,-0.00018634,-3.253e-05,0.0,0 STARLINK-3154,1 49417U 21104K   22195.09683316 -.00003253  00000-0 -18634-3 0  9998,2 49417  53.2175  90.3520 0002749  55.7114 304.4138 15.08841623 38398,6917.875,95.437,541.6419999999998,537.839,0.0
49417.0,STARLINK-3154,PAYLOAD,2022-07-14 10:16:22,15.08831035,0.0002911,53.2174,88.8663,56.9059,303.2213,-0.000242,-4.137e-05,0.0,0 STARLINK-3154,1 49417U 21104K   22195.42804304 -.00004137  00000-0 -24200-3 0  9995,2 49417  53.2174  88.8663 0002911  56.9059 303.2213 15.08831035 38442,6917.908,95.438,541.7869999999998,537.759,0.0
49417.0,STARLINK-3154,PAYLOAD,2022-07-15 10:07:09,15.08842624,0.0002792,53.2182,84.405,59.0246,301.1020000000001,5.3795e-05,5.68e-06,0.0,0 STARLINK-3154,1 49417U 21104K   22196.42164171  .00000568  00000-0  53795-4 0  9991,2 49417  53.2182  84.4050 0002792  59.0246 301.1020 15.08842624 38597,6917.871999999999,95.437,541.669,537.806,0.0
49417.0,STARLINK-3154,PAYLOAD,2022-07-15 21:14:51,15.08846152,0.000272,53.2175,82.3237,58.1141,302.0115,0.00034541,5.214e-05,0.0,0 STARLINK-3154,1 49417U 21104K   22196.88532102  .00005214  00000-0  34541-3 0  9994,2 49417  53.2175  82.3237 0002720  58.1141 302.0115 15.08846152 37558,6917.861999999999,95.437,541.6080000000002,537.845,0.0
49417.0,STARLINK-3154,PAYLOAD,2022-07-16 09:57:56,15.08855676,0.0002738,53.2172,79.9448,58.7398,301.3862,0.00051237,7.879e-05,0.0,0 STARLINK-3154,1 49417U 21104K   22197.41523856  .00007879  00000-0  51237-3 0  9990,2 49417  53.2172  79.9448 0002738  58.7398 301.3862 15.08855676 37631,6917.831999999999,95.437,541.592,537.803,0.0
49417.0,STARLINK-3154,PAYLOAD,2022-07-16 21:05:38,15.088587900000002,0.0002385,53.2167,77.8613,66.8344,293.2899,0.000352,5.321e-05,0.0,0 STARLINK-3154,1 49417U 21104K   22197.87891259  .00005321  00000-0  35200-3 0  9997,2 49417  53.2167  77.8613 0002385  66.8344 293.2899 15.08858790 38815,6917.823,95.436,541.3380000000002,538.038,0.0
49417.0,STARLINK-3154,PAYLOAD,2022-07-17 01:51:47,15.08853164,0.0002636,53.2168,76.9713,57.7235,302.4013,0.00018698,2.69e-05,0.0,0 STARLINK-3154,1 49417U 21104K   22198.07763407  .00002690  00000-0  18698-3 0  9991,2 49417  53.2168  76.9713 0002636  57.7235 302.4013 15.08853164 38848,6917.84,95.437,541.529,537.882,0.0
49417.0,STARLINK-3154,PAYLOAD,2022-07-17 19:21:01,15.088494400000002,0.0002617,53.2173,73.6996,59.1102,301.0147,2.019e-05,3.3e-07,0.0,0 STARLINK-3154,1 49417U 21104K   22198.80626977  .00000033  00000-0  20190-4 0  9992,2 49417  53.2173  73.6996 0002617  59.1102 301.0147 15.08849440 37843,6917.852,95.437,541.5269999999998,537.906,0.0
49417.0,STARLINK-3154,PAYLOAD,2022-07-18 00:07:11,15.08842579,0.0002606,53.2176,72.808,58.9448,301.1799,-0.00011626,-2.139e-05,0.0,0 STARLINK-3154,1 49417U 21104K   22199.00499172 -.00002139  00000-0 -11626-3 0  9994,2 49417  53.2176  72.8080 0002606  58.9448 301.1799 15.08842579 38985,6917.873000000001,95.437,541.54,537.935,0.0
49417.0,STARLINK-3154,PAYLOAD,2022-07-18 08:04:07,15.08835556,0.0002583,53.2174,71.3211,59.3307,300.7940000000001,-0.00018096,-3.167e-05,0.0,0 STARLINK-3154,1 49417U 21104K   22199.33619646 -.00003167  00000-0 -18096-3 0  9990,2 49417  53.2174  71.3211 0002583  59.3307 300.7940 15.08835556 39033,6917.894,95.438,541.5459999999998,537.972,0.0
49417.0,STARLINK-3154,PAYLOAD,2022-07-18 20:47:12,15.088471300000002,0.0002556,53.2183,68.9419,62.312,297.8132,-1.303e-05,-4.96e-06,0.0,0 STARLINK-3154,1 49417U 21104K   22199.86611253 -.00000496  00000-0 -13030-4 0  9990,2 49417  53.2183  68.9419 0002556  62.3120 297.8132 15.08847130 39111,6917.859,95.437,541.492,537.955,0.0
49417.0,STARLINK-3154,PAYLOAD,2022-07-19 07:54:54,15.0883338,0.0002467,53.2181,66.8602,58.5475,301.5758,-6.6032000000000014e-06,-3.93e-06,0.0,0 STARLINK-3154,1 49417U 21104K   22200.32980158 -.00000393  00000-0 -66032-5 0  9994,2 49417  53.2181  66.8602 0002467  58.5475 301.5758 15.08833380 39187,6917.901,95.438,541.472,538.059,0.0
49417.0,STARLINK-3154,PAYLOAD,2022-07-19 22:13:22,15.08848872,0.0002352,53.2178,64.1843,59.9232,300.1993,0.00024585,3.628e-05,0.0,0 STARLINK-3154,1 49417U 21104K   22200.92595090  .00003628  00000-0  24585-3 0  9994,2 49417  53.2178  64.1843 0002352  59.9232 300.1993 15.08848872 38165,6917.853,95.437,541.345,538.091,0.0
49417.0,STARLINK-3154,PAYLOAD,2022-07-20 07:45:41,15.08845659,0.0002376,53.2172,62.399,57.9392,302.183,0.00023796,3.501e-05,0.0,0 STARLINK-3154,1 49417U 21104K   22201.32339357  .00003501  00000-0  23796-3 0  9994,2 49417  53.2172  62.3990 0002376  57.9392 302.1830 15.08845659 38222,6917.863,95.437,541.372,538.0840000000002,0.0
49417.0,STARLINK-3154,PAYLOAD,2022-07-20 20:28:46,15.08836167,0.0002218999999999,53.2178,60.0212,60.0622,300.059,-3.842e-05,-9e-06,0.0,0 STARLINK-3154,1 49417U 21104K   22201.85331602 -.00000900  00000-0 -38420-4 0  9990,2 49417  53.2178  60.0212 0002219  60.0622 300.0590 15.08836167 39413,6917.892,95.438,541.2919999999998,538.222,0.0
49417.0,STARLINK-3154,PAYLOAD,2022-07-21 07:36:28,15.08827745,0.0002154999999999,53.2179,57.9388,56.03100000000001,304.0887,-0.0001286999999999,-2.335e-05,0.0,0 STARLINK-3154,1 49417U 21104K   22202.31700091 -.00002335  00000-0 -12870-3 0  9998,2 49417  53.2179  57.9388 0002155  56.0310 304.0887 15.08827745 38370,6917.918000000002,95.438,541.274,538.2919999999998,0.0
49417.0,STARLINK-3154,PAYLOAD,2022-07-21 20:19:34,15.088154,0.0002038,53.2179,55.5612,54.0227,306.0954,-0.00026812,-4.55e-05,0.0,0 STARLINK-3154,1 49417U 21104K   22202.84693239 -.00004550  00000-0 -26812-3 0  9993,2 49417  53.2179  55.5612 0002038  54.0227 306.0954 15.08815400 39563,6917.956,95.439,541.23,538.411,0.0
49417.0,STARLINK-3154,PAYLOAD,2022-07-21 21:54:58,15.08815217,0.0002039,53.2178,55.2631,55.0108,305.1075,-0.00026428,-4.489e-05,0.0,0 STARLINK-3154,1 49417U 21104K   22202.91317327 -.00004489  00000-0 -26428-3 0  9996,2 49417  53.2178  55.2631 0002039  55.0108 305.1075 15.08815217 38468,6917.956,95.439,541.232,538.411,0.0
49417.0,STARLINK-3154,PAYLOAD,2022-07-22 07:27:17,15.08824132,0.0002009999999999,53.2179,53.4793,55.7651,304.3531,-8.4987e-05,-1.64e-05,0.0,0 STARLINK-3154,1 49417U 21104K   22203.31061748 -.00001640  00000-0 -84987-4 0  9995,2 49417  53.2179  53.4793 0002010  55.7651 304.3531 15.08824132 39631,6917.929,95.439,541.184,538.403,0.0
49417.0,STARLINK-3154,PAYLOAD,2022-07-22 20:10:21,15.08844911,0.0001879,53.2181,51.0995,52.4409,307.6754,0.00037702,5.718e-05,0.0,0 STARLINK-3154,1 49417U 21104K   22203.84053161  .00005718  00000-0  37702-3 0  9993,2 49417  53.2181  51.0995 0001879  52.4409 307.6754 15.08844911 38605,6917.865,95.437,541.03,538.431,0.0
49417.0,STARLINK-3154,PAYLOAD,2022-07-23 13:39:36,15.08851183,0.0001926,53.218,47.8291,53.3695,306.7474,0.0005943,9.186e-05,0.0,0 STARLINK-3154,1 49417U 21104K   22204.56917362  .00009186  00000-0  59430-3 0  9990,2 49417  53.2180  47.8291 0001926  53.3695 306.7474 15.08851183 38716,6917.846,95.437,541.044,538.379,0.0
49417.0,STARLINK-3154,PAYLOAD,2022-07-23 20:01:09,15.08848483,0.0001996,53.2178,46.6408,48.769,311.3474,0.00014854,2.077e-05,0.0,0 STARLINK-3154,1 49417U 21104K   22204.83413291  .00002077  00000-0  14854-3 0  9995,2 49417  53.2178  46.6408 0001996  48.7690 311.3474 15.08848483 38755,6917.854,95.437,541.1,538.339,0.0
49417.0,STARLINK-3154,PAYLOAD,2022-07-23 23:11:55,15.08835685,0.0001962,53.2182,46.047,46.1464,313.969,0.00027098,4.027e-05,0.0,0 STARLINK-3154,1 49417U 21104K   22204.96661798  .00004027  00000-0  27098-3 0  9997,2 49417  53.2182  46.0470 0001962  46.1464 313.9690 15.08835685 39880,6917.894,95.438,541.116,538.401,0.0
49417.0,STARLINK-3154,PAYLOAD,2022-07-24 19:51:56,15.08843267,0.0001905,53.219,42.1793,53.9904,306.1265,5.0704e-05,5.19e-06,0.0,0 STARLINK-3154,1 49417U 21104K   22205.82773571  .00000519  00000-0  50704-4 0  9999,2 49417  53.2190  42.1793 0001905  53.9904 306.1265 15.08843267 38905,6917.87,95.437,541.053,538.418,0.0
49417.0,STARLINK-3154,PAYLOAD,2022-07-25 13:21:10,15.08846943,0.0001899999999999,53.2186,38.909,53.0442,307.0724,0.00011849,1.598e-05,0.0,0 STARLINK-3154,1 49417U 21104K   22206.55636823  .00001598  00000-0  11849-3 0  9992,2 49417  53.2186  38.9090 0001900  53.0442 307.0724 15.08846943 40127,6917.859,95.437,541.039,538.41,0.0
49417.0,STARLINK-3154,PAYLOAD,2022-07-25 19:42:42,15.08846283,0.0001884,53.2191,37.719,63.1475,296.9709,0.00011691,1.573e-05,0.0,0 STARLINK-3154,1 49417U 21104K   22206.82132796  .00001573  00000-0  11691-3 0  9990,2 49417  53.2191  37.7190 0001884  63.1475 296.9709 15.08846283 39056,6917.861,95.437,541.03,538.423,0.0
49417.0,STARLINK-3154,PAYLOAD,2022-07-25 22:53:29,15.08840284,0.0001937,53.2182,37.125,55.4337,304.6837,3.921e-05,3.36e-06,0.0,0 STARLINK-3154,1 49417U 21104K   22206.95381210  .00000336  00000-0  39210-4 0  9995,2 49417  53.2182  37.1250 0001937  55.4337 304.6837 15.08840284 40187,6917.88,95.438,541.085,538.405,0.0
49417.0,STARLINK-3154,PAYLOAD,2022-07-26 13:11:57,15.08840448,0.0001893,53.2189,34.4485,53.3512,306.7654,8.4225e-05,1.053e-05,0.0,0 STARLINK-3154,1 49417U 21104K   22207.54997404  .00001053  00000-0  84225-4 0  9992,2 49417  53.2189  34.4485 0001893  53.3512 306.7654 15.08840448 39165,6917.879,95.438,541.054,538.434,0.0
49417.0,STARLINK-3154,PAYLOAD,2022-07-26 19:33:30,15.08843891,0.0001914,53.2188,33.2593,53.7134,306.4035,0.0001001,1.305e-05,0.0,0 STARLINK-3154,1 49417U 21104K   22207.81493149  .00001305  00000-0  10010-3 0  9999,2 49417  53.2188  33.2593 0001914  53.7134 306.4035 15.08843891 39209,6917.868,95.437,541.058,538.409,0.0
